start=new Date('2021-09-12T00:00:00.000Z').valueOf();
sats=[{"PERIOD":"95.592","CLASSIFICATION_TYPE":"U","ELEMENT_SET_NO":"999","REV_AT_EPOCH":"2975","OBJECT_NAME":"STARLINK-2394","ARG_OF_PERICENTER":"125.5829","MEAN_ANOMALY":"234.5325","MEAN_MOTION_DDOT":"0.0000000000000","GP_ID":"184534401","TIME_SYSTEM":"UTC","SITE":"AFETR","APOAPSIS":"548.452","NORAD_CAT_ID":"47813","EPOCH":"2021-09-11T18:22:27.463296","MEAN_MOTION":"15.06395095","REF_FRAME":"TEME","CENTER_NAME":"EARTH","FILE":"3113379","TLE_LINE1":"1 47813U 21018AC  21254.76559564  .00000000  00000-0  18902-4 0  9990","ECCENTRICITY":"0.00017660","SEMIMAJOR_AXIS":"6925.364","LAUNCH_DATE":"2021-03-11","OBJECT_ID":"2021-018AC","MEAN_MOTION_DOT":"0.00000000","MEAN_ELEMENT_THEORY":"SGP4","OBJECT_TYPE":"PAYLOAD","TLE_LINE2":"2 47813  53.0575  33.5139 0001766 125.5829 234.5325 15.06395095 29756","PERIAPSIS":"546.006","RA_OF_ASC_NODE":"33.5139","RCS_SIZE":"LARGE","COUNTRY_CODE":"US","DECAY_DATE":null,"BSTAR":"0.00001890200000","EPHEMERIS_TYPE":"0","INCLINATION":"53.0575"},{"OBJECT_NAME":"STARLINK-2395","ARG_OF_PERICENTER":"94.6719","REV_AT_EPOCH":"2947","MEAN_ANOMALY":"265.4461","GP_ID":"184535652","MEAN_MOTION_DDOT":"0.0000000000000","TIME_SYSTEM":"UTC","PERIOD":"95.592","CLASSIFICATION_TYPE":"U","ELEMENT_SET_NO":"999","CENTER_NAME":"EARTH","NORAD_CAT_ID":"47814","MEAN_MOTION":"15.06404578","EPOCH":"2021-09-11T17:21:24.830784","SITE":"AFETR","APOAPSIS":"548.362","REF_FRAME":"TEME","MEAN_MOTION_DOT":"0.00002496","OBJECT_ID":"2021-018AD","LAUNCH_DATE":"2021-03-11","TLE_LINE1":"1 47814U 21018AD  21254.72320406  .00002496  00000-0  18637-3 0  9993","ECCENTRICITY":"0.00016790","SEMIMAJOR_AXIS":"6925.335","FILE":"3113379","RCS_SIZE":"MEDIUM","RA_OF_ASC_NODE":"53.7149","BSTAR":"0.00018637000000","EPHEMERIS_TYPE":"0","INCLINATION":"53.0581","COUNTRY_CODE":"US","DECAY_DATE":null,"MEAN_ELEMENT_THEORY":"SGP4","OBJECT_TYPE":"PAYLOAD","PERIAPSIS":"546.037","TLE_LINE2":"2 47814  53.0581  53.7149 0001679  94.6719 265.4461 15.06404578 29476"},{"EPHEMERIS_TYPE":"0","INCLINATION":"53.0567","BSTAR":"0.00007623400000","COUNTRY_CODE":"US","DECAY_DATE":null,"RCS_SIZE":"LARGE","RA_OF_ASC_NODE":"48.5678","PERIAPSIS":"545.913","TLE_LINE2":"2 47815  53.0567  48.5678 0001895  88.9874 271.1332 15.06396228 29482","OBJECT_TYPE":"PAYLOAD","MEAN_ELEMENT_THEORY":"SGP4","MEAN_MOTION_DOT":"0.00000854","LAUNCH_DATE":"2021-03-11","OBJECT_ID":"2021-018AE","ECCENTRICITY":"0.00018950","TLE_LINE1":"1 47815U 21018AE  21254.75499628  .00000854  00000-0  76234-4 0  9994","SEMIMAJOR_AXIS":"6925.360","FILE":"3113379","CENTER_NAME":"EARTH","REF_FRAME":"TEME","EPOCH":"2021-09-11T18:07:11.678592","MEAN_MOTION":"15.06396228","NORAD_CAT_ID":"47815","SITE":"AFETR","APOAPSIS":"548.537","MEAN_MOTION_DDOT":"0.0000000000000","GP_ID":"184535403","TIME_SYSTEM":"UTC","MEAN_ANOMALY":"271.1332","ARG_OF_PERICENTER":"88.9874","OBJECT_NAME":"STARLINK-2396","REV_AT_EPOCH":"2948","ELEMENT_SET_NO":"999","CLASSIFICATION_TYPE":"U","PERIOD":"95.592"},{"CENTER_NAME":"EARTH","EPOCH":"2021-09-11T18:19:47.553312","MEAN_MOTION":"15.06400980","NORAD_CAT_ID":"47816","APOAPSIS":"548.492","SITE":"AFETR","REF_FRAME":"TEME","ARG_OF_PERICENTER":"94.3436","OBJECT_NAME":"STARLINK-2399","REV_AT_EPOCH":"2941","GP_ID":"184534651","MEAN_MOTION_DDOT":"0.0000000000000","TIME_SYSTEM":"UTC","MEAN_ANOMALY":"265.7765","CLASSIFICATION_TYPE":"U","PERIOD":"95.592","ELEMENT_SET_NO":"999","RCS_SIZE":"LARGE","RA_OF_ASC_NODE":"53.5240","EPHEMERIS_TYPE":"0","INCLINATION":"53.0561","BSTAR":"0.00006233100000","DECAY_DATE":null,"COUNTRY_CODE":"US","OBJECT_TYPE":"PAYLOAD","MEAN_ELEMENT_THEORY":"SGP4","TLE_LINE2":"2 47816  53.0561  53.5240 0001850  94.3436 265.7765 15.06400980 29417","PERIAPSIS":"545.929","MEAN_MOTION_DOT":"0.00000647","LAUNCH_DATE":"2021-03-11","OBJECT_ID":"2021-018AF","ECCENTRICITY":"0.00018500","TLE_LINE1":"1 47816U 21018AF  21254.76374483  .00000647  00000-0  62331-4 0  9990","SEMIMAJOR_AXIS":"6925.346","FILE":"3113379"},{"MEAN_ELEMENT_THEORY":"SGP4","OBJECT_TYPE":"PAYLOAD","TLE_LINE2":"2 47817  53.0547  53.7387 0002254  96.8072 263.3173 15.06396854 29408","PERIAPSIS":"545.662","RA_OF_ASC_NODE":"53.7387","RCS_SIZE":"LARGE","COUNTRY_CODE":"US","DECAY_DATE":null,"EPHEMERIS_TYPE":"0","INCLINATION":"53.0547","BSTAR":"-0.00001868800000","FILE":"3113379","ECCENTRICITY":"0.00022540","TLE_LINE1":"1 47817U 21018AG  21254.71583648 -.00000560  00000-0 -18688-4 0  9993","SEMIMAJOR_AXIS":"6925.358","OBJECT_ID":"2021-018AG","LAUNCH_DATE":"2021-03-11","MEAN_MOTION_DOT":"-0.00000560","APOAPSIS":"548.784","SITE":"AFETR","MEAN_MOTION":"15.06396854","EPOCH":"2021-09-11T17:10:48.271872","NORAD_CAT_ID":"47817","REF_FRAME":"TEME","CENTER_NAME":"EARTH","CLASSIFICATION_TYPE":"U","PERIOD":"95.592","ELEMENT_SET_NO":"999","REV_AT_EPOCH":"2940","ARG_OF_PERICENTER":"96.8072","OBJECT_NAME":"STARLINK-2400","GP_ID":"184534901","TIME_SYSTEM":"UTC","MEAN_MOTION_DDOT":"0.0000000000000","MEAN_ANOMALY":"263.3173"},{"MEAN_MOTION_DOT":"0.00000908","OBJECT_ID":"2021-018AH","LAUNCH_DATE":"2021-03-11","ECCENTRICITY":"0.00017950","TLE_LINE1":"1 47818U 21018AH  21254.74301194  .00000908  00000-0  79850-4 0  9993","SEMIMAJOR_AXIS":"6925.337","FILE":"3113379","RCS_SIZE":"LARGE","RA_OF_ASC_NODE":"58.6182","EPHEMERIS_TYPE":"0","INCLINATION":"53.0559","BSTAR":"0.00007985000000","DECAY_DATE":null,"COUNTRY_CODE":"US","OBJECT_TYPE":"PAYLOAD","MEAN_ELEMENT_THEORY":"SGP4","PERIAPSIS":"545.959","TLE_LINE2":"2 47818  53.0559  58.6182 0001795  92.6625 267.4569 15.06403779 29348","ARG_OF_PERICENTER":"92.6625","OBJECT_NAME":"STARLINK-2401","REV_AT_EPOCH":"2934","TIME_SYSTEM":"UTC","GP_ID":"184535153","MEAN_MOTION_DDOT":"0.0000000000000","MEAN_ANOMALY":"267.4569","CLASSIFICATION_TYPE":"U","PERIOD":"95.592","ELEMENT_SET_NO":"999","CENTER_NAME":"EARTH","EPOCH":"2021-09-11T17:49:56.231616","MEAN_MOTION":"15.06403779","NORAD_CAT_ID":"47818","APOAPSIS":"548.445","SITE":"AFETR","REF_FRAME":"TEME"},{"ELEMENT_SET_NO":"999","PERIOD":"95.592","CLASSIFICATION_TYPE":"U","MEAN_ANOMALY":"262.9524","MEAN_MOTION_DDOT":"0.0000000000000","GP_ID":"184535903","TIME_SYSTEM":"UTC","OBJECT_NAME":"STARLINK-2402","ARG_OF_PERICENTER":"97.1663","REV_AT_EPOCH":"2947","REF_FRAME":"TEME","NORAD_CAT_ID":"47819","MEAN_MOTION":"15.06396909","EPOCH":"2021-09-11T17:16:05.952576","SITE":"AFETR","APOAPSIS":"548.426","CENTER_NAME":"EARTH","ECCENTRICITY":"0.00017370","TLE_LINE1":"1 47819U 21018AJ  21254.71951334  .00001276  00000-0  10458-3 0  9995","SEMIMAJOR_AXIS":"6925.358","FILE":"3113379","MEAN_MOTION_DOT":"0.00001276","LAUNCH_DATE":"2021-03-11","OBJECT_ID":"2021-018AJ","PERIAPSIS":"546.020","TLE_LINE2":"2 47819  53.0597  53.7254 0001737  97.1663 262.9524 15.06396909 29476","OBJECT_TYPE":"PAYLOAD","MEAN_ELEMENT_THEORY":"SGP4","BSTAR":"0.00010458000000","INCLINATION":"53.0597","EPHEMERIS_TYPE":"0","DECAY_DATE":null,"COUNTRY_CODE":"US","RCS_SIZE":"MEDIUM","RA_OF_ASC_NODE":"53.7254"},{"FILE":"3113379","ECCENTRICITY":"0.00016180","TLE_LINE1":"1 47820U 21018AK  21254.70017033 -.00000447  00000-0 -11137-4 0  9992","SEMIMAJOR_AXIS":"6925.360","OBJECT_ID":"2021-018AK","LAUNCH_DATE":"2021-03-11","MEAN_MOTION_DOT":"-0.00000447","OBJECT_TYPE":"PAYLOAD","MEAN_ELEMENT_THEORY":"SGP4","PERIAPSIS":"546.105","TLE_LINE2":"2 47820  53.0563  63.8137 0001618  89.2646 270.8529 15.06396259 29329","RA_OF_ASC_NODE":"63.8137","RCS_SIZE":"LARGE","COUNTRY_CODE":"US","DECAY_DATE":null,"EPHEMERIS_TYPE":"0","INCLINATION":"53.0563","BSTAR":"-0.00001113700000","CLASSIFICATION_TYPE":"U","PERIOD":"95.592","ELEMENT_SET_NO":"999","REV_AT_EPOCH":"2932","ARG_OF_PERICENTER":"89.2646","OBJECT_NAME":"STARLINK-2403","TIME_SYSTEM":"UTC","GP_ID":"184534152","MEAN_MOTION_DDOT":"0.0000000000000","MEAN_ANOMALY":"270.8529","APOAPSIS":"548.346","SITE":"AFETR","EPOCH":"2021-09-11T16:48:14.716512","MEAN_MOTION":"15.06396259","NORAD_CAT_ID":"47820","REF_FRAME":"TEME","CENTER_NAME":"EARTH"},{"ARG_OF_PERICENTER":"91.3297","OBJECT_NAME":"STARLINK-2406","REV_AT_EPOCH":"2941","TIME_SYSTEM":"UTC","GP_ID":"184534402","MEAN_MOTION_DDOT":"0.0000000000000","MEAN_ANOMALY":"268.7908","CLASSIFICATION_TYPE":"U","PERIOD":"95.592","ELEMENT_SET_NO":"999","CENTER_NAME":"EARTH","MEAN_MOTION":"15.06396084","EPOCH":"2021-09-11T17:51:54.214272","NORAD_CAT_ID":"47821","APOAPSIS":"548.535","SITE":"AFETR","REF_FRAME":"TEME","MEAN_MOTION_DOT":"-0.00000197","LAUNCH_DATE":"2021-03-11","OBJECT_ID":"2021-018AL","ECCENTRICITY":"0.00018910","TLE_LINE1":"1 47821U 21018AL  21254.74437748 -.00000197  00000-0  56931-5 0  9999","SEMIMAJOR_AXIS":"6925.361","FILE":"3113379","RCS_SIZE":"LARGE","RA_OF_ASC_NODE":"53.6173","INCLINATION":"53.0567","EPHEMERIS_TYPE":"0","BSTAR":"0.00000569310000","COUNTRY_CODE":"US","DECAY_DATE":null,"OBJECT_TYPE":"PAYLOAD","MEAN_ELEMENT_THEORY":"SGP4","PERIAPSIS":"545.916","TLE_LINE2":"2 47821  53.0567  53.6173 0001891  91.3297 268.7908 15.06396084 29413"},{"REF_FRAME":"TEME","NORAD_CAT_ID":"47822","MEAN_MOTION":"15.06398436","EPOCH":"2021-09-11T18:07:51.343968","APOAPSIS":"548.387","SITE":"AFETR","CENTER_NAME":"EARTH","ELEMENT_SET_NO":"999","PERIOD":"95.592","CLASSIFICATION_TYPE":"U","MEAN_ANOMALY":"268.6951","TIME_SYSTEM":"UTC","GP_ID":"184535653","MEAN_MOTION_DDOT":"0.0000000000000","OBJECT_NAME":"STARLINK-2407","ARG_OF_PERICENTER":"91.4231","REV_AT_EPOCH":"2928","PERIAPSIS":"546.050","TLE_LINE2":"2 47822  53.0550  63.5587 0001687  91.4231 268.6951 15.06398436 29282","MEAN_ELEMENT_THEORY":"SGP4","OBJECT_TYPE":"PAYLOAD","BSTAR":"-0.00003000600000","EPHEMERIS_TYPE":"0","INCLINATION":"53.0550","DECAY_DATE":null,"COUNTRY_CODE":"US","RCS_SIZE":"LARGE","RA_OF_ASC_NODE":"63.5587","ECCENTRICITY":"0.00016870","TLE_LINE1":"1 47822U 21018AM  21254.75545537 -.00000728  00000-0 -30006-4 0  9992","SEMIMAJOR_AXIS":"6925.353","FILE":"3113379","MEAN_MOTION_DOT":"-0.00000728","LAUNCH_DATE":"2021-03-11","OBJECT_ID":"2021-018AM"}];
